OBJECT_NAME,OBJECT_ID,EPOCH,MEAN_MOTION,ECCENTRICITY,INCLINATION,RA_OF_ASC_NODE,ARG_OF_PERICENTER,MEAN_ANOMALY,EPHEMERIS_TYPE,CLASSIFICATION_TYPE,NORAD_CAT_ID,ELEMENT_SET_NO,REV_AT_EPOCH,BSTAR,MEAN_MOTION_DOT,MEAN_MOTION_DDOT
SCD 1,1993-009B,2026-06-14T15:00:29.051136,14.46118084,.0042141,24.9680,223.3964,110.7073,23.6278,0,U,22490,999,76074,.4993E-4,.369E-5,0
TECHSAT 1B (GO-32),1998-043D,2026-06-14T17:54:46.425024,14.24427952,.000092,99.0067,158.4434,168.4150,191.7050,0,U,25397,999,45098,.36985E-4,.39E-6,0
SCD 2,1998-060A,2026-06-14T11:48:50.090688,14.45524918,.00169768,24.9950,88.7767,94.8048,66.0761,0,U,25504,999,45993,.50974479E-4,.365E-5,0
DLR-TUBSAT,1999-029B,2026-06-14T21:10:28.400160,14.52426367,.0014197,98.6695,161.3105,2.2468,357.8788,0,U,25757,999,43291,.28219E-4,.67E-6,0
TERRA,1999-068A,2026-06-14T19:57:03.688416,14.61101387,.0001396,97.9457,215.4709,198.1654,250.3347,0,U,25994,999,40926,.78603E-4,.342E-5,0
MAROC-TUBSAT,2001-056D,2026-06-14T17:30:06.348096,13.70262397,.0020253,99.8080,342.5425,147.4147,227.9996,0,U,27004,999,22585,.2258E-4,-.27E-6,0
AQUA,2002-022A,2026-06-14T20:43:30.510912,14.62154950,.0001191,98.4276,135.0999,53.4276,3.6446,0,U,27424,999,28293,.14241E-3,.667E-5,0
SHIYAN-1 (SY-1),2004-012A,2026-06-14T18:28:18.527232,15.33707559,.000582,97.8697,243.6806,41.2072,318.9608,0,U,28220,999,21072,.39379E-3,.12762E-3,0
AURA,2004-026A,2026-06-14T20:43:25.350240,14.61325979,.0001233,98.3417,122.2975,73.9446,286.1890,0,U,28376,999,16587,.1443E-3,.665E-5,0
IRS-P5 (CARTOSAT-1),2005-017A,2026-06-14T19:07:06.589056,14.91043736,.0002654,97.5308,188.9695,82.8567,277.2953,0,U,28649,999,14346,.1326E-3,.126E-4,0
SINAH 1,2005-043D,2026-06-14T20:48:54.940320,14.64156332,.0013158,98.2857,300.1757,284.8033,75.1711,0,U,28893,999,10018,.62578E-4,.28E-5,0
RESURS-DK 1,2006-021A,2026-06-14T20:29:41.237664,15.13210055,.0006839,69.9340,345.5925,293.4574,66.5873,0,U,29228,999,10222,.14012E-3,.2387E-4,0
ARIRANG-2 (KOMPSAT-2),2006-031A,2026-06-14T20:17:29.781312,14.64660106,.0015958,97.8302,350.4058,81.3395,43.1314,0,U,29268,999,6113,.12665E-3,.63E-5,0
LAPAN-TUBSAT,2007-001A,2026-06-14T21:32:25.409184,14.85950768,.0011689,98.1336,165.0693,186.6624,173.4436,0,U,29709,999,5081,.12897E-3,.1069E-4,0
HAIYANG-1B,2007-010A,2026-06-14T20:05:54.790080,14.31026337,.0012866,98.3494,147.7737,203.5799,156.4796,0,U,31113,999,30,.42111E-4,.69E-6,0
COSMO-SKYMED 1,2007-023A,2026-06-14T19:05:48.446304,14.97089058,.0001125,97.8840,357.6316,97.8433,262.2916,0,U,31598,999,2943,.21558E-3,.2426E-4,0
TERRASAR-X,2007-026A,2026-06-14T13:22:04.240992,15.19148207,.00018,97.4461,173.3010,95.8158,264.3281,0,U,31698,999,5282,.21289E-4,.38E-5,0
WORLDVIEW-1 (WV-1),2007-041A,2026-06-14T20:42:51.698304,15.24244831,.0002478,97.3877,285.6398,27.8756,332.2613,0,U,32060,999,4252,.22967E-3,.5533E-4,0
YAOGAN-3,2007-055A,2026-06-14T20:17:10.399200,14.90774817,.0002038,97.8155,195.7460,87.7995,272.3456,0,U,32289,999,552,.18723E-3,.1785E-4,0
COSMO-SKYMED 2,2007-059A,2026-06-14T19:09:22.474656,14.82153280,.0001384,97.8885,349.4308,86.6381,273.4991,0,U,32376,999,165,.49987E-4,.346E-5,0
RADARSAT-2,2007-061A,2026-06-14T20:50:56.992416,14.29980183,.00013,98.5773,172.8339,84.0456,276.0875,0,U,32382,999,96562,-.95651E-4,-.29E-5,0
CARTOSAT-2A,2008-021A,2026-06-14T21:09:58.319136,14.79234722,.0013086,97.7640,214.6690,115.5611,244.6956,0,U,32783,999,97846,.72244E-4,.487E-5,0
HUANJING 1A (HJ-1A),2008-041A,2026-06-14T20:58:14.627424,14.83983014,.0019798,97.6675,151.8013,141.8405,218.4216,0,U,33320,999,95806,.14747E-3,.118E-4,0
HUANJING 1B (HJ-1B),2008-041B,2026-06-14T20:12:11.956320,14.83311564,.0035821,97.6511,154.9490,188.7611,171.2982,0,U,33321,999,95806,.54557E-4,.399E-5,0
GEOEYE 1,2008-042A,2026-06-14T19:54:08.749152,14.64723811,.0005475,98.1236,239.7903,75.3005,284.8804,0,U,33331,999,94980,.87596E-4,.419E-5,0
THEOS,2008-049A,2026-06-14T20:31:28.146432,14.20132982,.000122,98.5578,223.2144,80.2089,279.9226,0,U,33396,999,91763,.96612E-4,.164E-5,0
COSMO-SKYMED 3,2008-054A,2026-06-14T21:15:09.805824,15.06940901,.0014352,97.8286,24.4185,275.3898,84.5692,0,U,33412,999,95659,.26256E-3,.3867E-4,0
YAOGAN-4,2008-061A,2026-06-14T19:20:29.160384,14.83196039,.0015743,97.9308,99.3337,79.4478,280.8509,0,U,33446,999,94531,.11558E-3,.891E-5,0
GOSAT (IBUKI),2009-002A,2026-06-14T13:08:18.409056,14.67540145,.0001517,98.0891,276.6617,86.4252,273.7126,0,U,33492,999,93107,.18612578E-3,.1007E-4,0
DEIMOS-1,2009-041A,2026-06-14T21:07:33.714912,14.75237344,.0001462,97.7393,323.2079,132.8749,227.2583,0,U,35681,999,90654,.14577E-3,.938E-5,0
DUBAISAT-1,2009-041B,2026-06-14T20:24:52.854336,14.75119588,.0011708,98.0049,299.1340,80.4003,279.8528,0,U,35682,999,90475,.10211E-3,.638E-5,0
