SCD 1                   
1 22490U 93009B   26165.62533624  .00000369  00000+0  49930-4 0  9995
2 22490  24.9680 223.3964 0042141 110.7073  23.6278 14.46118084760747
TECHSAT 1B (GO-32)      
1 25397U 98043D   26165.74637066  .00000039  00000+0  36985-4 0  9995
2 25397  99.0067 158.4434 0000920 168.4150 191.7050 14.24427952450983
SCD 2                   
1 25504U 98060A   26165.49224642  .00000365  00000+0  50974-4 0  9994
2 25504  24.9950  88.7767 0016976  94.8048  66.0761 14.45524918459931
DLR-TUBSAT              
1 25757U 99029B   26165.88227315  .00000067  00000+0  28219-4 0  9999
2 25757  98.6695 161.3105 0014197   2.2468 357.8788 14.52426367432917
TERRA                   
1 25994U 99068A   26165.83129269  .00000342  00000+0  78603-4 0  9997
2 25994  97.9457 215.4709 0001396 198.1654 250.3347 14.61101387409260
MAROC-TUBSAT            
1 27004U 01056D   26165.72924014 -.00000027  00000+0  22580-4 0  9994
2 27004  99.8080 342.5425 0020253 147.4147 227.9996 13.70262397225850
AQUA                    
1 27424U 02022A   26165.86354758  .00000667  00000+0  14241-3 0  9994
2 27424  98.4276 135.0999 0001191  53.4276   3.6446 14.62154950282936
SHIYAN-1 (SY-1)         
1 28220U 04012A   26165.76965888  .00012762  00000+0  39379-3 0  9999
2 28220  97.8697 243.6806 0005820  41.2072 318.9608 15.33707559210724
AURA                    
1 28376U 04026A   26165.86348785  .00000665  00000+0  14430-3 0  9998
2 28376  98.3417 122.2975 0001233  73.9446 286.1890 14.61325979165878
IRS-P5 (CARTOSAT-1)     
1 28649U 05017A   26165.79660404  .00001260  00000+0  13260-3 0  9991
2 28649  97.5308 188.9695 0002654  82.8567 277.2953 14.91043736143463
SINAH 1                 
1 28893U 05043D   26165.86730255  .00000280  00000+0  62578-4 0  9999
2 28893  98.2857 300.1757 0013158 284.8033  75.1711 14.64156332100187
RESURS-DK 1             
1 29228U 06021A   26165.85394951  .00002387  00000+0  14012-3 0  9996
2 29228  69.9340 345.5925 0006839 293.4574  66.5873 15.13210055102224
ARIRANG-2 (KOMPSAT-2)   
1 29268U 06031A   26165.84548358  .00000630  00000+0  12665-3 0  9993
2 29268  97.8302 350.4058 0015958  81.3395  43.1314 14.64660106 61131
LAPAN-TUBSAT            
1 29709U 07001A   26165.89751631  .00001069  00000+0  12897-3 0  9990
2 29709  98.1336 165.0693 0011689 186.6624 173.4436 14.85950768 50812
HAIYANG-1B              
1 31113U 07010A   26165.83743970  .00000069  00000+0  42111-4 0  9995
2 31113  98.3494 147.7737 0012866 203.5799 156.4796 14.31026337   303
COSMO-SKYMED 1          
1 31598U 07023A   26165.79569961  .00002426  00000+0  21558-3 0  9997
2 31598  97.8840 357.6316 0001125  97.8433 262.2916 14.97089058 29435
TERRASAR-X              
1 31698U 07026A   26165.55699353  .00000380  00000+0  21289-4 0  9993
2 31698  97.4461 173.3010 0001800  95.8158 264.3281 15.19148207 52821
WORLDVIEW-1 (WV-1)      
1 32060U 07041A   26165.86309836  .00005533  00000+0  22967-3 0  9990
2 32060  97.3877 285.6398 0002478  27.8756 332.2613 15.24244831 42528
YAOGAN-3                
1 32289U 07055A   26165.84525925  .00001785  00000+0  18723-3 0  9995
2 32289  97.8155 195.7460 0002038  87.7995 272.3456 14.90774817  5520
COSMO-SKYMED 2          
1 32376U 07059A   26165.79817679  .00000346  00000+0  49987-4 0  9999
2 32376  97.8885 349.4308 0001384  86.6381 273.4991 14.82153280  1658
RADARSAT-2              
1 32382U 07061A   26165.86871519 -.00000290  00000+0 -95651-4 0  9999
2 32382  98.5773 172.8339 0001300  84.0456 276.0875 14.29980183965621
CARTOSAT-2A             
1 32783U 08021A   26165.88192499  .00000487  00000+0  72244-4 0  9995
2 32783  97.7640 214.6690 0013086 115.5611 244.6956 14.79234722978465
HUANJING 1A (HJ-1A)     
1 33320U 08041A   26165.87378041  .00001180  00000+0  14747-3 0  9997
2 33320  97.6675 151.8013 0019798 141.8405 218.4216 14.83983014958062
HUANJING 1B (HJ-1B)     
1 33321U 08041B   26165.84180505  .00000399  00000+0  54557-4 0  9996
2 33321  97.6511 154.9490 0035821 188.7611 171.2982 14.83311564958060
GEOEYE 1                
1 33331U 08042A   26165.82926793  .00000419  00000+0  87596-4 0  9995
2 33331  98.1236 239.7903 0005475  75.3005 284.8804 14.64723811949809
THEOS                   
1 33396U 08049A   26165.85518688  .00000164  00000+0  96612-4 0  9992
2 33396  98.5578 223.2144 0001220  80.2089 279.9226 14.20132982917633
COSMO-SKYMED 3          
1 33412U 08054A   26165.88553016  .00003867  00000+0  26256-3 0  9993
2 33412  97.8286  24.4185 0014352 275.3898  84.5692 15.06940901956599
YAOGAN-4                
1 33446U 08061A   26165.80589306  .00000891  00000+0  11558-3 0  9994
2 33446  97.9308  99.3337 0015743  79.4478 280.8509 14.83196039945319
GOSAT (IBUKI)           
1 33492U 09002A   26165.54743529  .00001007  00000+0  18613-3 0  9990
2 33492  98.0891 276.6617 0001517  86.4252 273.7126 14.67540145931079
DEIMOS-1                
1 35681U 09041A   26165.88025133  .00000938  00000+0  14577-3 0  9993
2 35681  97.7393 323.2079 0001462 132.8749 227.2583 14.75237344906549
DUBAISAT-1              
1 35682U 09041B   26165.85061174  .00000638  00000+0  10211-3 0  9994
2 35682  98.0049 299.1340 0011708  80.4003 279.8528 14.75119588904751
